#dP2024  8  3  0  0  0.00000000      96 __u+U IGS20 FIT  IAC
## 2325 518400.00000000   900.00000000 60525 0.0000000000000
+   53   G02G03G04G05G06G07G08G09G10G11G12G13G14G15G16G17G18
+        G19G20G21G22G23G24G25G26G27G28G29G30G31G32R01R02R03
+        R04R05R07R08R09R11R12R14R15R16R17R18R19R20R21R22R24
+        R25R26  0  0  0  0  0  0  0  0  0  0  0  0  0  0  0
+          0  0  0  0  0  0  0  0  0  0  0  0  0  0  0  0  0
++         7  6  7  6  6  8  6  6  7  6  7  6  7  7  7  6  8
++         5  7  7  7  5  7  7  7  7  8  6  7  6  8  6  7  7
++         7  7  7  6  8  7  7  7  8  7  7  7  7  7  6  6  7
++         6  6  0  0  0  0  0  0  0  0  0  0  0  0  0  0  0
++         0  0  0  0  0  0  0  0  0  0  0  0  0  0  0  0  0
%c M  cc GPS ccc cccc cccc cccc cccc ccccc ccccc ccccc ccccc
%c cc cc ccc ccc cccc cccc cccc cccc ccccc ccccc ccccc ccccc
%f  0.0000000  0.000000000  0.00000000000  0.000000000000000
%f  0.0000000  0.000000000  0.00000000000  0.000000000000000
%i    0    0    0    0      0      0      0      0         0
%i    0    0    0    0      0      0      0      0         0
/* INFORMATION & ANALYSIS CENTER (IAC)      ULTRA-RAPID DATA
/* S/V CLOCKS ARE ALIGNED TO GNSS TIME                      
/* G:C1WC2W R:C1PC2P E:C1XC5X C:C2IC6I J:C1CC2S             
/* PCV:IGS20_2317 OL/AL:FES2004  NONE     YN ORB:CoN CLK:CoN
*  2024 08 03  6  0  0.00000000
PG02  13575.365809 -21871.011641  -5353.593307   -386.547290
PG03   4458.134724 -14074.962772 -22242.303638    484.833619
PG04   2171.933084 -24037.320768 -10914.745921    416.644618
PG05 -20234.988757   6618.804000  15744.147416   -181.920085
PG06 -16858.455002  -2261.657690 -20366.674287    122.423694
PG07  -2258.082702 -17870.686841  19894.867195    -58.085147
PG08   9145.031994 -15968.231857  18883.269925    300.683585
PG09  -7286.829786 -25508.022181   -364.991092    298.745543
PG10  23635.326601  10804.496345   6485.292143    -83.211179
PG11 -22045.007649   9971.020675 -10860.065141   -715.617806
PG12  -8525.861754  13115.195721 -21738.717366   -527.378132
PG13 -13720.036564   7335.134022  21273.270126    668.532914
PG14 -21132.726721 -13280.378309   9442.531317    463.667073
PG15  -6939.642776  17427.617118  18224.493823    188.289972
PG16  23138.994542  -1303.524634  13030.093153   -219.022711
PG17 -13067.764252 -18614.535979 -13162.239493    663.762321
PG18   1933.644603  17146.663017  20143.748688   -642.812086
PG19 -15176.175847 -10726.793566 -19293.845482    519.363188
PG20 -25544.500609   2548.529265   6560.937021    372.081913
PG21  16576.329648 -20005.005531      6.189473    105.145043
PG22 -24237.551144 -10342.471553   1982.808284    -47.008968
PG23  14642.652537  14891.158284  16558.765108    288.601249
PG24 -13856.310723  22046.261779  -4382.782070   -485.330653
PG25   4379.846764  16422.985303 -20805.077092    499.042938
PG26  26404.829110   4310.268349    596.381789    107.975299
PG27  14440.222651  -4289.106077  21579.996075    -32.430764
PG28  15784.766788   4476.624588 -20897.058178   -357.417599
PG29   2537.480357  26143.803540  -3477.666926   -586.202101
PG30 -12094.719556 -10276.750892  21455.479083   -346.711181
PG31  21536.285775  -6130.252067 -14799.755227   -226.228709
PG32  14957.771362  16638.368133 -14253.338166   -608.411624
PR01 -16303.976064  -6738.591938  18426.702999     93.333049
PR02  -6977.331067   8622.560948  23015.520262    -23.959362
PR03   6192.771665  20028.902640  14617.384788    104.933496
PR04  15385.845480  20301.064794  -1467.114941    248.153310
PR05  16502.743737   9801.600269 -16806.533578    135.500889
PR07  -6642.498850 -20202.264770 -14010.647357     88.009728
PR08 -15684.178592 -20013.878098   1846.285897     -6.253562
PR09  20007.897664  -9282.881522  12761.550036    201.256768
PR11 -13112.821254  -8142.268230  20329.374800     16.139126
PR12 -25050.666481    583.363277   4778.881450     43.187422
PR14  -4029.959869  11484.032325 -22401.202612     26.757715
PR15  14635.938560   7722.401042 -19381.872609     77.236059
PR16  24996.260329   -647.151366  -4924.609208     27.935472
PR17  -6365.912209  23312.558251   8092.129253    110.209780
PR18   3394.356348  14789.705188  20528.466669    155.150869
PR19  11052.671178    841.772116  22972.044615   -286.197463
PR20  14401.641985 -18248.497726  10471.430259   -117.093504
PR21   6911.093711 -23371.771421  -7592.013996   -122.839075
PR22  -4108.686170 -14037.266757 -20872.321695     76.924098
PR24 -13642.456377  19146.041237  -9852.647882    -66.281218
PR25   7004.287733 -23082.699081  -8333.517188    -99.261333
PR26 -15299.061213 -20423.987530    317.986297      7.653275
*  2024 08 03  6 15  0.00000000
PG02  14094.937076 -22107.374916  -2513.863342   -386.540667
PG03   6875.116672 -13482.919669 -21979.851448    484.847554
PG04   2733.293289 -22746.786845 -13303.282059    416.651387
PG05 -21882.230469   6151.003370  13618.429949   -181.921679
PG06 -15240.314322  -4020.656048 -21334.996074    122.402409
PG07   -706.019083 -19318.497810  18535.960475    -58.079216
PG08  10014.057086 -13870.304612  20093.483365    300.697183
PG09  -6976.221281 -25405.166839  -3211.831126    298.759364
PG10  22763.626183  10751.943765   9183.084323    -83.220721
PG11 -21196.809284   8857.904176 -13250.748965   -715.623225
PG12 -10801.865756  12365.655611 -21146.539352   -527.380917
PG13 -14148.130661   4865.688042  21713.265423    668.535050
PG14 -19899.322059 -13216.871982  11884.411673    463.674950
PG15  -8073.676378  15456.769115  19475.063022    188.293746
PG16  24399.281888   -690.714465  10659.858846   -219.013139
PG17 -13191.275780 -20058.195349 -10761.421885    663.754575
PG18    304.653376  18672.183339  18815.102452   -642.815244
PG19 -15470.104824 -12783.651328 -17768.944032    519.367703
PG20 -26118.184820   2243.214632   3791.979368    372.081623
PG21  16762.075805 -19700.389286   2919.442416    105.142801
PG22 -23822.687146 -10493.627007   4819.858483    -47.012826
PG23  12680.274428  14606.120617  18320.982402    288.609155
PG24 -14322.946796  22067.765104  -1585.104454   -485.331547
PG25   2071.051688  15987.837258 -21478.866920    499.043207
PG26  26286.909078   4608.311759  -2173.955023    107.968639
PG27  15197.841016  -1882.792324  21442.710536    -32.431370
PG28  14229.414960   6337.693929 -21523.197891   -357.431337
PG29   2191.084596  25652.768676  -6287.910699   -586.200113
PG30 -10424.814259 -12040.933041  21389.957714   -346.705120
PG31  20424.945825  -4760.657847 -16744.334751   -226.227954
PG32  15234.199203  18150.814698 -11984.691056   -608.409397
PR01 -17750.724457  -8324.534389  16323.094317     93.333798
PR02  -8698.644764   6363.703853  23159.092768    -23.959812
PR03   5093.462281  18426.612621  16962.720497    104.933525
PR04  15521.053507  20178.478149   1759.578625    248.154813
PR05  17780.424698  11253.290950 -14428.758835    135.501505
PR07  -5573.703176 -18641.949798 -16428.894420     88.010204
PR08 -15825.584547 -19931.176344  -1376.020225     -6.253740
PR09  21375.812922  -9600.153848   9998.254837    201.259152
PR11 -10548.556143  -8479.132410  21640.805406     16.137976
PR12 -24264.798381    593.856388   7859.939211     43.187884
PR14  -6703.895097  11938.594486 -21507.832665     26.757520
PR15  12162.867550   8028.668693 -20905.991002     77.235649
PR16  24182.452986   -667.457710  -8011.611358     27.935936
PR17  -6504.958934  24128.784644   4988.595270    110.213115
PR18   2552.006315  17068.056765  18813.035025    155.152620
PR19   9839.175077   3430.673026  23279.851660   -286.199060
PR20  13614.795781 -16995.927188  13263.816624   -117.094509
PR21   7016.086938 -24134.519526  -4468.302558   -122.842156
PR22  -3150.931052 -16331.781138 -19312.917606     76.917710
PR24 -12994.437937  17906.726330 -12657.898662    -66.282502
PR25   7221.143213 -23905.928016  -5266.649125    -99.262601
PR26 -15329.632490 -20194.072699  -2896.081665      7.654942
EOF
